      2.10          N: GNSS NAV DATA                        RINEX VERSION / TYPE
fic2rin                                 03/28/2024 00:59:02 PGM / RUN BY / DATE
                                                            END OF HEADER
1  24  3 27  1 59 44.0  .176192726940D-03  .216004991671D-11  .000000000000D+00
     .400000000000D+01 -.659062500000D+02  .364443751974D-08 -.217530358128D+01
    -.360049307346D-05  .129687156295D-01  .113677233458D-04  .515400954819D+04
     .266384000000D+06  .171363353729D-06 -.311280680577D+01 -.335276126862D-07
     .990986109452D+00  .171187500000D+03  .100395803374D+01 -.737852163076D-08
     .189293599124D-10  .100000000000D+01  .230700000000D+04  .000000000000D+00
     .240000000000D+01  .630000000000D+02  .512227416039D-08  .400000000000D+01
     .259200000000D+06  .400000000000D+01
25 24  3 27 20  0  0.0  .492380931973D-03  .909494701773D-12  .000000000000D+00
     .100000000000D+03  .106625000000D+03  .486698844389D-08 -.216332170875D+00
     .558234751225D-05  .118146507302D-01  .787153840065D-05  .515359801483D+04
     .331200000000D+06 -.204890966415D-07  .103642273286D+01  .184401869774D-06
     .950798133290D+00  .229468750000D+03  .108449839319D+01 -.845249493748D-08
     .374301305437D-09  .100000000000D+01  .230700000000D+04  .000000000000D+00
     .240000000000D+01  .000000000000D+00  .558793544769D-08  .100000000000D+03
     .324000000000D+06  .400000000000D+01
28 24  3 27 20  0  0.0 -.180402304977D-03 -.144382283906D-10  .000000000000D+00
     .165000000000D+03 -.115000000000D+02  .421088968617D-08 -.891296752144D+00
    -.560656189919D-06  .509385135956D-03  .112652778625D-04  .515362641525D+04
     .331200000000D+06  .223517417908D-07 -.266605453073D-01 -.167638063431D-07
     .961902946936D+00  .162093750000D+03  .174706356755D+01 -.782639742944D-08
    -.349657421778D-09  .100000000000D+01  .230700000000D+04  .000000000000D+00
     .240000000000D+01  .000000000000D+00 -.931322574615D-08  .933000000000D+03
     .324000000000D+06  .400000000000D+01
18 24  3 27 20  0  0.0 -.583725981414D-03 -.716227077646D-11  .000000000000D+00
     .118000000000D+03 -.877812500000D+02  .404981154805D-08  .142186648697D+01
    -.437162816525D-05  .391204247717D-02  .105518847704D-04  .515362369347D+04
     .331200000000D+06  .707805156708D-07 -.311678536509D+01  .484287738800D-07
     .974864701016D+00  .182687500000D+03 -.303849141437D+01 -.786318467606D-08
    -.302155443130D-09  .100000000000D+01  .230700000000D+04  .000000000000D+00
     .240000000000D+01  .000000000000D+00 -.838190317154D-08  .886000000000D+03
     .324000000000D+06  .400000000000D+01
14 24  3 27 20  0  0.0  .361411832273D-03  .966338120634D-11  .000000000000D+00
     .640000000000D+02  .967500000000D+02  .490056127090D-08 -.127181180944D+00
     .507757067680D-05  .417034898419D-02  .722706317902D-05  .515369766426D+04
     .331200000000D+06  .335276126862D-07  .107881249143D+01  .223517417908D-07
     .946193395290D+00  .232312500000D+03 -.295016691464D+01 -.833820446254D-08
     .347514475373D-09  .100000000000D+01  .230700000000D+04  .000000000000D+00
     .240000000000D+01  .000000000000D+00 -.791624188423D-08  .576000000000D+03
     .324000000000D+06  .400000000000D+01
21 24  3 27 19 59 44.0  .129660125822D-03 -.147792889038D-11  .000000000000D+00
     .460000000000D+02 -.102593750000D+03  .416231623432D-08 -.296278251889D+01
    -.501424074173D-05  .252559356159D-01  .955536961555D-05  .515371601295D+04
     .331184000000D+06 -.154599547386D-06  .305775124437D+01  .301748514175D-06
     .962056440690D+00  .193093750000D+03 -.599527153650D+00 -.755817197106D-08
    -.288583449230D-09  .100000000000D+01  .230700000000D+04  .000000000000D+00
     .240000000000D+01  .000000000000D+00 -.102445483208D-07  .460000000000D+02
     .324630000000D+06  .400000000000D+01
6  24  3 27 19 59 44.0  .349091831595D-03 -.170530256582D-10  .000000000000D+00
     .480000000000D+02 -.765937500000D+02  .367336729621D-08  .144251899450D+01
    -.395067036152D-05  .310600292869D-02  .970438122749D-05  .515359223557D+04
     .331184000000D+06  .521540641785D-07 -.312171644354D+01 -.242143869400D-07
     .990067370566D+00  .203281250000D+03 -.717594575860D+00 -.761353141986D-08
    -.272154193457D-09  .100000000000D+01  .230700000000D+04  .000000000000D+00
     .240000000000D+01  .000000000000D+00  .419095158577D-08  .480000000000D+02
     .329430000000D+06  .400000000000D+01
6  24  3 27 21 59 44.0  .348968897015D-03 -.170530256582D-10  .000000000000D+00
     .570000000000D+02 -.824375000000D+02  .378087177420D-08  .249297700437D+01
    -.401586294174D-05  .310604891274D-02  .987015664577D-05  .515359096146D+04
     .338384000000D+06  .596046447754D-07 -.312177144048D+01  .409781932831D-07
     .990065477550D+00  .205250000000D+03 -.717826764366D+00 -.761496005079D-08
    -.232152527227D-09  .100000000000D+01  .230700000000D+04  .000000000000D+00
     .240000000000D+01  .000000000000D+00  .419095158577D-08  .570000000000D+02
     .331200000000D+06  .400000000000D+01
21 24  3 27 21 59 44.0  .129648949951D-03 -.147792889038D-11  .000000000000D+00
     .530000000000D+02 -.100062500000D+03  .438803992233D-08 -.191265313894D+01
    -.509060919285D-05  .252571003512D-01  .104699283838D-04  .515371368027D+04
     .338384000000D+06 -.623986124992D-06  .305769478890D+01 -.335276126862D-07
     .962052313798D+00  .182562500000D+03 -.599501968052D+00 -.805212111745D-08
    -.201436962087D-09  .100000000000D+01  .230700000000D+04  .000000000000D+00
     .240000000000D+01  .000000000000D+00 -.102445483208D-07  .530000000000D+02
     .331200000000D+06  .400000000000D+01
2  24  3 27 22  0  0.0 -.463230535388D-03  .625277607469D-11  .000000000000D+00
     .181000000000D+03 -.932187500000D+02  .431553690229D-08 -.153237878726D+01
    -.460259616375D-05  .160621597897D-01  .998005270958D-05  .515371129417D+04
     .338400000000D+06 -.303611159325D-06  .306452184429D+01  .281259417534D-06
     .967785191315D+00  .193843750000D+03 -.121351853384D+01 -.802926302246D-08
    -.259653672761D-09  .100000000000D+01  .230700000000D+04  .000000000000D+00
     .240000000000D+01  .000000000000D+00 -.176951289177D-07  .181000000000D+03
     .331200000000D+06  .400000000000D+01
1  24  3 27 22  0  0.0  .176351051778D-03  .216004991671D-11  .000000000000D+00
     .780000000000D+02 -.972187500000D+02  .363979446919D-08  .204309033226D+01
    -.518374145031D-05  .129749984480D-01  .103283673525D-04  .515401529121D+04
     .338400000000D+06 -.113621354103D-06 -.311335388446D+01 -.284984707832D-06
     .990973320622D+00  .198812500000D+03  .100439154172D+01 -.753281377193D-08
    -.203222750758D-09  .100000000000D+01  .230700000000D+04  .000000000000D+00
     .485000000000D+01  .630000000000D+02  .512227416039D-08  .780000000000D+02
     .331200000000D+06  .400000000000D+01
3  24  3 27 22  0  0.0  .277296639979D-03  .220552465180D-10  .000000000000D+00
     .100000000000D+01  .236875000000D+02  .398088010535D-08  .122817273931D+01
     .121444463730D-05  .522943586111D-02  .958330929279D-05  .515375650978D+04
     .338400000000D+06 -.987201929092D-07 -.208559956004D+01  .670552253723D-07
     .983347965464D+00  .206843750000D+03  .106358349374D+01 -.779389607563D-08
     .447161483213D-09  .100000000000D+01  .230700000000D+04  .000000000000D+00
     .240000000000D+01  .000000000000D+00  .186264514923D-08  .100000000000D+01
     .331200000000D+06  .400000000000D+01
5  24  3 27 22  0  0.0 -.166980549693D-03 -.136424205266D-11  .000000000000D+00
     .240000000000D+02  .262187500000D+02  .421767568312D-08 -.144977004012D+01
     .137835741043D-05  .570186576806D-02  .910833477974D-05  .515358472443D+04
     .338400000000D+06  .763684511185D-07 -.213614742465D+01  .968575477600D-07
     .970361900611D+00  .209156250000D+03  .123127864459D+01 -.785032699763D-08
     .362872257943D-09  .100000000000D+01  .230700000000D+04  .000000000000D+00
     .240000000000D+01  .000000000000D+00 -.107102096081D-07  .240000000000D+02
     .331200000000D+06  .400000000000D+01
4  24  3 27 22  0  0.0  .325093977153D-03  .898126018001D-11  .000000000000D+00
     .228000000000D+03 -.220625000000D+02  .474519765653D-08 -.209965027523D+01
    -.124238431454D-05  .279279705137D-02  .491179525852D-05  .515376062965D+04
     .338400000000D+06 -.428408384323D-07 -.100604136367D+01  .931322574615D-08
     .964278832690D+00  .287500000000D+03 -.295469401265D+01 -.815855412224D-08
    -.142505935944D-09  .100000000000D+01  .230700000000D+04  .000000000000D+00
     .240000000000D+01  .000000000000D+00 -.465661287308D-08  .996000000000D+03
     .331200000000D+06  .400000000000D+01
24 24  3 27 22  0  0.0 -.452085863799D-03 -.500222085975D-11  .000000000000D+00
     .400000000000D+01 -.285000000000D+02  .477198448659D-08  .266005225831D+01
    -.152736902237D-05  .151624521241D-01  .103414058685D-04  .515372803688D+04
     .338400000000D+06  .689178705215D-07 -.888758955006D-01 -.145286321640D-06
     .934432481904D+00  .163625000000D+03  .971447725223D+00 -.789390024120D-08
    -.352871841386D-09  .100000000000D+01  .230700000000D+04  .000000000000D+00
     .240000000000D+01  .000000000000D+00  .232830643654D-08  .400000000000D+01
     .331200000000D+06  .400000000000D+01
